{"fetched_at":"2026-03-29T02:12:04Z","count":15717,"tles":[{"name":"HAWK-6A","line1":"1 55327U 23011D   26087.04482550  .00006007  00000+0  26481-3 0  9996","line2":"2 55327  40.4987 103.5427 0003070 195.8659 164.2055 15.22128436175483","category":"Other"}]}